STARLINK-1816
1 46714U 20073AW  26092.83335647  .00298327  00000+0  14275-2 0  9993
2 46714  53.0365  78.0326 0002821  97.9716 200.2696 15.81407866  5965
